CTC2_L_00095001-01
1 59441U 26571XP  26070.40842593  .00000000  00000+0  00000-0 0  9993
2 59441  95.0000   0.0000 0000000   0.0000   0.0000 15.18623435    18
CTC2_L_00095001-02
1 59442U 22083GS  26070.40842593  .00000000  00000+0  00000-0 0  9998
2 59442  95.0000   0.0000 0000000   0.0000  90.0000 15.18623435    18
CTC2_L_00095001-03
1 59443U 22601UT  26070.40842593  .00000000  00000+0  00000-0 0  9995
2 59443  95.0000   0.0000 0000000   0.0000 180.0000 15.18623435    19
CTC2_L_00095001-04
1 59444U 22021SZ  26070.40842593  .00000000  00000+0  00000-0 0  9992
2 59444  95.0000   0.0000 0000000   0.0000 270.0000 15.18623435    10
CTC2_L_00095002-01
1 59445U 24878UR  26070.40842593  .00000000  00000+0  00000-0 0  9995
2 59445  95.0000  12.0000 0000000   0.0000  12.0000 15.18623435    18
CTC2_L_00095002-02
1 59446U 22488AL  26070.40842593  .00000000  00000+0  00000-0 0  9991
2 59446  95.0000  12.0000 0000000   0.0000 102.0000 15.18623435    19
CTC2_L_00095002-03
1 59447U 26024GE  26070.40842593  .00000000  00000+0  00000-0 0  9992
2 59447  95.0000  12.0000 0000000   0.0000 192.0000 15.18623435    19
CTC2_L_00095002-04
1 59448U 25789CS  26070.40842593  .00000000  00000+0  00000-0 0  9990
2 59448  95.0000  12.0000 0000000   0.0000 282.0000 15.18623435    10
CTC2_L_00095003-01
1 59449U 22350WF  26070.40842593  .00000000  00000+0  00000-0 0  9992
2 59449  95.0000  24.0000 0000000   0.0000  24.0000 15.18623435    18
CTC2_L_00095003-02
1 59450U 24685YT  26070.40842593  .00000000  00000+0  00000-0 0  9997
2 59450  95.0000  24.0000 0000000   0.0000 114.0000 15.18623435    10
CTC2_L_00095003-03
1 59451U 22844SG  26070.40842593  .00000000  00000+0  00000-0 0  9993
2 59451  95.0000  24.0000 0000000   0.0000 204.0000 15.18623435    11
CTC2_L_00095003-04
1 59452U 24084OD  26070.40842593  .00000000  00000+0  00000-0 0  9992
2 59452  95.0000  24.0000 0000000   0.0000 294.0000 15.18623435    11
CTC2_L_00095004-01
1 59453U 23187UJ  26070.40842593  .00000000  00000+0  00000-0 0  9996
2 59453  95.0000  36.0000 0000000   0.0000  36.0000 15.18623435    19
CTC2_L_00095004-02
1 59454U 26108OQ  26070.40842593  .00000000  00000+0  00000-0 0  9993
2 59454  95.0000  36.0000 0000000   0.0000 126.0000 15.18623435    10
CTC2_L_00095004-03
1 59455U 23021BF  26070.40842593  .00000000  00000+0  00000-0 0  9995
2 59455  95.0000  36.0000 0000000   0.0000 216.0000 15.18623435    11
CTC2_L_00095004-04
1 59456U 22151XB  26070.40842593  .00000000  00000+0  00000-0 0  9999
2 59456  95.0000  36.0000 0000000   0.0000 306.0000 15.18623435    12
CTC2_L_00095005-01
1 59457U 25536SI  26070.40842593  .00000000  00000+0  00000-0 0  9990
2 59457  95.0000  48.0000 0000000   0.0000  48.0000 15.18623435    19
CTC2_L_00095005-02
1 59458U 25354ID  26070.40842593  .00000000  00000+0  00000-0 0  9999
2 59458  95.0000  48.0000 0000000   0.0000 138.0000 15.18623435    10
CTC2_L_00095005-03
1 59459U 22769WI  26070.40842593  .00000000  00000+0  00000-0 0  9997
2 59459  95.0000  48.0000 0000000   0.0000 228.0000 15.18623435    11
CTC2_L_00095005-04
1 59460U 24521XJ  26070.40842593  .00000000  00000+0  00000-0 0  9997
2 59460  95.0000  48.0000 0000000   0.0000 318.0000 15.18623435    13
CTC2_L_00095006-01
1 59461U 25790CW  26070.40842593  .00000000  00000+0  00000-0 0  9997
2 59461  95.0000  60.0000 0000000   0.0000  60.0000 15.18623435    12
CTC2_L_00095006-02
1 59462U 25860WU  26070.40842593  .00000000  00000+0  00000-0 0  9996
2 59462  95.0000  60.0000 0000000   0.0000 150.0000 15.18623435    13
CTC2_L_00095006-03
1 59463U 24500MT  26070.40842593  .00000000  00000+0  00000-0 0  9997
2 59463  95.0000  60.0000 0000000   0.0000 240.0000 15.18623435    14
CTC2_L_00095006-04
1 59464U 24972NB  26070.40842593  .00000000  00000+0  00000-0 0  9991
2 59464  95.0000  60.0000 0000000   0.0000 330.0000 15.18623435    15
CTC2_L_00095007-01
1 59465U 25484FE  26070.40842593  .00000000  00000+0  00000-0 0  9991
2 59465  95.0000  72.0000 0000000   0.0000  72.0000 15.18623435    12
CTC2_L_00095007-02
1 59466U 24492VC  26070.40842593  .00000000  00000+0  00000-0 0  9990
2 59466  95.0000  72.0000 0000000   0.0000 162.0000 15.18623435    13
CTC2_L_00095007-03
1 59467U 22892TP  26070.40842593  .00000000  00000+0  00000-0 0  9993
2 59467  95.0000  72.0000 0000000   0.0000 252.0000 15.18623435    14
CTC2_L_00095007-04
1 59468U 26393TX  26070.40842593  .00000000  00000+0  00000-0 0  9994
2 59468  95.0000  72.0000 0000000   0.0000 342.0000 15.18623435    15
CTC2_L_00095008-01
1 59469U 25008FV  26070.40842593  .00000000  00000+0  00000-0 0  9997
2 59469  95.0000  84.0000 0000000   0.0000  84.0000 15.18623435    12
CTC2_L_00095008-02
1 59470U 26840HV  26070.40842593  .00000000  00000+0  00000-0 0  9994
2 59470  95.0000  84.0000 0000000   0.0000 174.0000 15.18623435    14
CTC2_L_00095008-03
1 59471U 23429IR  26070.40842593  .00000000  00000+0  00000-0 0  9995
2 59471  95.0000  84.0000 0000000   0.0000 264.0000 15.18623435    15
CTC2_L_00095008-04
1 59472U 22898GR  26070.40842593  .00000000  00000+0  00000-0 0  9995
2 59472  95.0000  84.0000 0000000   0.0000 354.0000 15.18623435    16
CTC2_L_00095009-01
1 59473U 25229JN  26070.40842593  .00000000  00000+0  00000-0 0  9997
2 59473  95.0000  96.0000 0000000   0.0000  96.0000 15.18623435    13
CTC2_L_00095009-02
1 59474U 23904PW  26070.40842593  .00000000  00000+0  00000-0 0  9996
2 59474  95.0000  96.0000 0000000   0.0000 186.0000 15.18623435    14
CTC2_L_00095009-03
1 59475U 26750ID  26070.40842593  .00000000  00000+0  00000-0 0  9999
2 59475  95.0000  96.0000 0000000   0.0000 276.0000 15.18623435    15
CTC2_L_00095009-04
1 59476U 26396WF  26070.40842593  .00000000  00000+0  00000-0 0  9996
2 59476  95.0000  96.0000 0000000   0.0000   6.0000 15.18623435    17
CTC2_L_00095010-01
1 59477U 24609CZ  26070.40842593  .00000000  00000+0  00000-0 0  9992
2 59477  95.0000 108.0000 0000000   0.0000 108.0000 15.18623435    15
CTC2_L_00095010-02
1 59478U 24269DE  26070.40842593  .00000000  00000+0  00000-0 0  9995
2 59478  95.0000 108.0000 0000000   0.0000 198.0000 15.18623435    15
CTC2_L_00095010-03
1 59479U 26192HV  26070.40842593  .00000000  00000+0  00000-0 0  9993
2 59479  95.0000 108.0000 0000000   0.0000 288.0000 15.18623435    16
CTC2_L_00095010-04
1 59480U 23566UR  26070.40842593  .00000000  00000+0  00000-0 0  9997
2 59480  95.0000 108.0000 0000000   0.0000  18.0000 15.18623435    19
CTC2_L_00095011-01
1 59481U 24836NM  26070.40842593  .00000000  00000+0  00000-0 0  9999
2 59481  95.0000 120.0000 0000000   0.0000 120.0000 15.18623435    18
CTC2_L_00095011-02
1 59482U 26503ZD  26070.40842593  .00000000  00000+0  00000-0 0  9993
2 59482  95.0000 120.0000 0000000   0.0000 210.0000 15.18623435    19
CTC2_L_00095011-03
1 59483U 23756QY  26070.40842593  .00000000  00000+0  00000-0 0  9991
2 59483  95.0000 120.0000 0000000   0.0000 300.0000 15.18623435    10
CTC2_L_00095011-04
1 59484U 23518NS  26070.40842593  .00000000  00000+0  00000-0 0  9998
2 59484  95.0000 120.0000 0000000   0.0000  30.0000 15.18623435    11
CTC2_L_00095012-01
1 59485U 26784JD  26070.40842593  .00000000  00000+0  00000-0 0  9997
2 59485  95.0000 132.0000 0000000   0.0000 132.0000 15.18623435    18
CTC2_L_00095012-02
1 59486U 26835K   26070.40842593  .00000000  00000+0  00000-0 0  9995
2 59486  95.0000 132.0000 0000000   0.0000 222.0000 15.18623435    19
CTC2_L_00095012-03
1 59487U 24171YB  26070.40842593  .00000000  00000+0  00000-0 0  9997
2 59487  95.0000 132.0000 0000000   0.0000 312.0000 15.18623435    10
CTC2_L_00095012-04
1 59488U 25552VW  26070.40842593  .00000000  00000+0  00000-0 0  9992
2 59488  95.0000 132.0000 0000000   0.0000  42.0000 15.18623435    11
CTC2_L_00095013-01
1 59489U 23898BK  26070.40842593  .00000000  00000+0  00000-0 0  9994
2 59489  95.0000 144.0000 0000000   0.0000 144.0000 15.18623435    18
CTC2_L_00095013-02
1 59490U 25494IJ  26070.40842593  .00000000  00000+0  00000-0 0  9990
2 59490  95.0000 144.0000 0000000   0.0000 234.0000 15.18623435    10
CTC2_L_00095013-03
1 59491U 22571QF  26070.40842593  .00000000  00000+0  00000-0 0  9994
2 59491  95.0000 144.0000 0000000   0.0000 324.0000 15.18623435    11
CTC2_L_00095013-04
1 59492U 24980OG  26070.40842593  .00000000  00000+0  00000-0 0  9991
2 59492  95.0000 144.0000 0000000   0.0000  54.0000 15.18623435    12
CTC2_L_00095014-01
1 59493U 25435GG  26070.40842593  .00000000  00000+0  00000-0 0  9998
2 59493  95.0000 156.0000 0000000   0.0000 156.0000 15.18623435    19
CTC2_L_00095014-02
1 59494U 26864TK  26070.40842593  .00000000  00000+0  00000-0 0  9996
2 59494  95.0000 156.0000 0000000   0.0000 246.0000 15.18623435    10
CTC2_L_00095014-03
1 59495U 23900SI  26070.40842593  .00000000  00000+0  00000-0 0  9995
2 59495  95.0000 156.0000 0000000   0.0000 336.0000 15.18623435    11
CTC2_L_00095014-04
1 59496U 26388MF  26070.40842593  .00000000  00000+0  00000-0 0  9999
2 59496  95.0000 156.0000 0000000   0.0000  66.0000 15.18623435    12
CTC2_L_00095015-01
1 59497U 24834OF  26070.40842593  .00000000  00000+0  00000-0 0  9994
2 59497  95.0000 168.0000 0000000   0.0000 168.0000 15.18623435    19
CTC2_L_00095015-02
1 59498U 24691UY  26070.40842593  .00000000  00000+0  00000-0 0  9996
2 59498  95.0000 168.0000 0000000   0.0000 258.0000 15.18623435    10
CTC2_L_00095015-03
1 59499U 26742VU  26070.40842593  .00000000  00000+0  00000-0 0  9996
2 59499  95.0000 168.0000 0000000   0.0000 348.0000 15.18623435    11
CTC2_L_00095015-04
1 59500U 25675QV  26070.40842593  .00000000  00000+0  00000-0 0  9993
2 59500  95.0000 168.0000 0000000   0.0000  78.0000 15.18623435    14
CTC2_L_00095016-01
1 59501U 22871N   26070.40842593  .00000000  00000+0  00000-0 0  9999
2 59501  95.0000 180.0000 0000000   0.0000 180.0000 15.18623435    13
CTC2_L_00095016-02
1 59502U 22964KM  26070.40842593  .00000000  00000+0  00000-0 0  9993
2 59502  95.0000 180.0000 0000000   0.0000 270.0000 15.18623435    14
